H1 CPF 01  gfz 2021 09 07 12  7502 terrasarx 
H2 0702601  6201 31698    2021 09 07 12 59 42 2021 09 12 00 00 42   120 1 1  0 0 0
H9
10 0 59468  32382.000000  0    4596535.090  -3920808.623   3300993.590
10 0 59468  32502.000000  0    4760833.271  -4311535.992   2482176.327
10 0 59468  32622.000000  0    4835686.468  -4628961.732   1619646.443
10 0 59468  32742.000000  0    4821136.930  -4865976.352    728594.881
10 0 59468  32862.000000  0    4718916.896  -5016908.077   -175285.167
10 0 59468  32982.000000  0    4532391.312  -5077652.833  -1076082.687
10 0 59468  33102.000000  0    4266468.221  -5045772.904  -1957958.231
10 0 59468  33222.000000  0    3927477.284  -4920561.405  -2805430.293
10 0 59468  33342.000000  0    3523021.359  -4703071.402  -3603652.756
10 0 59468  33462.000000  0    3061804.844  -4396109.699  -4338677.030
10 0 59468  33582.000000  0    2553443.903  -4004195.967  -4997695.049
10 0 59468  33702.000000  0    2008262.442  -3533487.596  -5569256.625
10 0 59468  33822.000000  0    1437081.156  -2991675.511  -6043458.219
10 0 59468  33942.000000  0     851003.069  -2387853.592  -6412104.420
10 0 59468  34062.000000  0     261198.651  -1732362.040  -6668839.410
10 0 59468  34182.000000  0    -321304.121  -1036608.207  -6809245.723
10 0 59468  34302.000000  0    -885820.721   -312869.312  -6830911.248
10 0 59468  34422.000000  0   -1422201.011    425919.897  -6733465.602
10 0 59468  34542.000000  0   -1921007.652   1166392.270  -6518585.163
10 0 59468  34662.000000  0   -2373678.117   1894984.111  -6189967.296
10 0 59468  34782.000000  0   -2772669.562   2598177.492  -5753274.091
10 0 59468  34902.000000  0   -3111584.906   3262747.773  -5216045.492
10 0 59468  35022.000000  0   -3385278.036   3876011.872  -4587581.086
10 0 59468  35142.000000  0   -3589936.200   4426072.902  -3878789.657
10 0 59468  35262.000000  0   -3723135.670   4902055.091  -3102007.991
10 0 59468  35382.000000  0   -3783870.150   5294323.972  -2270793.476
10 0 59468  35502.000000  0   -3772552.951   5594688.638  -1399692.089
10 0 59468  35622.000000  0   -3690990.305   5796580.908   -503983.597
10 0 59468  35742.000000  0   -3542325.241   5895203.331    400591.185
10 0 59468  35862.000000  0   -3330955.654   5887643.713   1298113.539
10 0 59468  35982.000000  0   -3062424.793   5772952.935   2172777.369
10 0 59468  36102.000000  0   -2743287.123   5552181.248   3009177.976
10 0 59468  36222.000000  0   -2380955.077   5228372.807   3792590.525
10 0 59468  36342.000000  0   -1983530.941   4806521.184   4509233.915
10 0 59468  36462.000000  0   -1559627.820   4293486.439   5146515.473
10 0 59468  36582.000000  0   -1118183.377   3697876.057   5693252.399
10 0 59468  36702.000000  0    -668271.623   3029891.888   6139864.398
10 0 59468  36822.000000  0    -218917.203   2301147.882   6478536.008
10 0 59468  36942.000000  0     221084.238   1524463.518   6703346.958
10 0 59468  37062.000000  0     643337.330    713635.030   6810370.570
10 0 59468  37182.000000  0    1040006.094   -116810.630   6797736.931
10 0 59468  37302.000000  0    1403958.285   -951874.836   6665664.288
10 0 59468  37422.000000  0    1728893.404  -1776357.878   6416456.044
10 0 59468  37542.000000  0    2009452.179  -2575135.007   6054463.684
10 0 59468  37662.000000  0    2241305.973  -3333435.289   5586015.905
10 0 59468  37782.000000  0    2421224.559  -4037117.595   5019313.191
10 0 59468  37902.000000  0    2547120.549  -4672938.187   4364289.880
10 0 59468  38022.000000  0    2618071.383  -5228806.561   3632445.176
10 0 59468  38142.000000  0    2634316.793  -5694023.375   2836643.460
10 0 59468  38262.000000  0    2597230.942  -6059495.366   1990887.882
10 0 59468  38382.000000  0    2509270.381  -6317919.601   1110070.047
10 0 59468  38502.000000  0    2373899.640  -6463934.243    209703.459
10 0 59468  38622.000000  0    2195496.057  -6494233.991   -694357.005
10 0 59468  38742.000000  0    1979234.948  -6407643.143  -1586204.995
10 0 59468  38862.000000  0    1730957.401  -6205144.201  -2450171.158
10 0 59468  38982.000000  0    1457025.849  -5889864.468  -3271106.041
10 0 59468  39102.000000  0    1164171.014  -5467015.836  -4034649.455
10 0 59468  39222.000000  0     859336.094  -4943797.120  -4727480.828
10 0 59468  39342.000000  0     549519.662  -4329259.315  -5337547.486
10 0 59468  39462.000000  0     241621.811  -3634138.149  -5854266.977
10 0 59468  39582.000000  0     -57703.245  -2870657.348  -6268700.768
10 0 59468  39702.000000  0    -342184.981  -2052307.953  -6573697.360
10 0 59468  39822.000000  0    -606062.536  -1193608.060  -6764004.340
10 0 59468  39942.000000  0    -844196.512   -309847.214  -6836349.854
10 0 59468  40062.000000  0   -1052165.191    583181.768  -6789492.199
10 0 59468  40182.000000  0   -1226344.326   1469457.727  -6624237.863
10 0 59468  40302.000000  0   -1363968.876   2333011.291  -6343428.917
10 0 59468  40422.000000  0   -1463176.100   3158205.574  -5951900.401
10 0 59468  40542.000000  0   -1523030.112   3930016.357  -5456406.600
10 0 59468  40662.000000  0   -1543526.444   4634304.987  -4865515.367
10 0 59468  40782.000000  0   -1525577.387   5258081.432  -4189471.622
10 0 59468  40902.000000  0   -1470977.500   5789750.946  -3440029.057
10 0 59468  41022.000000  0   -1382349.313   6219338.314  -2630253.330
10 0 59468  41142.000000  0   -1263070.787   6538686.326  -1774299.940
10 0 59468  41262.000000  0   -1117185.527   6741622.719   -887167.508
10 0 59468  41382.000000  0    -949297.879   6824089.888     15566.659
10 0 59468  41502.000000  0    -764454.819   6784235.987    918025.614
10 0 59468  41622.000000  0    -568017.800   6622461.315   1804321.950
10 0 59468  41742.000000  0    -365528.052   6341416.221   2658847.892
10 0 59468  41862.000000  0    -162569.055   5945953.669   3466557.114
10 0 59468  41982.000000  0      35370.152   5443040.151   4213234.653
10 0 59468  42102.000000  0     223027.722   4841626.929   4885753.533
10 0 59468  42222.000000  0     395495.802   4152475.808   5472307.414
10 0 59468  42342.000000  0     548336.731   3387957.870   5962611.923
10 0 59468  42462.000000  0     677686.513   2561823.814   6348082.366
10 0 59468  42582.000000  0     780342.908   1688949.655   6621977.826
10 0 59468  42702.000000  0     853837.543    785064.676   6779513.246
10 0 59468  42822.000000  0     896490.367   -133533.637   6817937.054
10 0 59468  42942.000000  0     907445.636  -1050272.075   6736576.836
10 0 59468  43062.000000  0     886688.678  -1948600.660   6536851.330
10 0 59468  43182.000000  0     835043.205  -2812291.211   6222247.742
10 0 59468  43302.000000  0     754149.073  -3625732.569   5798264.420
10 0 59468  43422.000000  0     646420.793  -4374214.341   5272317.919
10 0 59468  43542.000000  0     514989.141  -5044195.769   4653619.718
10 0 59468  43662.000000  0     363625.677  -5623557.983   3953022.188
10 0 59468  43782.000000  0     196650.606  -6101833.865   3182832.122
10 0 59468  43902.000000  0      18826.559  -6470407.795   2356595.351
10 0 59468  44022.000000  0    -164759.438  -6722680.010   1488856.270
10 0 59468  44142.000000  0    -348822.611  -6854193.814    594898.494
10 0 59468  44262.000000  0    -528013.304  -6862721.348   -309533.013
10 0 59468  44382.000000  0    -697051.913  -6748301.890  -1208519.437
10 0 59468  44502.000000  0    -850861.853  -6513233.759  -2086257.055
10 0 59468  44622.000000  0    -984697.838  -6162022.153  -2927341.713
10 0 59468  44742.000000  0   -1094266.619  -5701283.920  -3717044.445
10 0 59468  44862.000000  0   -1175836.825  -5139610.876  -4441571.746
10 0 59468  44982.000000  0   -1226335.000  -4487396.328  -5088303.921
10 0 59468  45102.000000  0   -1243426.232  -3756631.400  -5646008.366
10 0 59468  45222.000000  0   -1225577.567  -2960675.645  -6105025.813
10 0 59468  45342.000000  0   -1172103.208  -2114006.576  -6457427.212
10 0 59468  45462.000000  0   -1083191.046  -1231953.569  -6697138.938
10 0 59468  45582.000000  0    -959910.619   -330421.971  -6820036.844
10 0 59468  45702.000000  0    -804202.019    574389.394  -6824009.268
10 0 59468  45822.000000  0    -618845.351   1466272.062  -6708988.419
10 0 59468  45942.000000  0    -407412.536   2329290.585  -6476951.301
10 0 59468  46062.000000  0    -174201.763   3148060.344  -6131890.419
10 0 59468  46182.000000  0      75846.045   3908018.758  -5679753.656
10 0 59468  46302.000000  0     337246.815   4595683.562  -5128351.079
10 0 59468  46422.000000  0     604086.700   5198894.736  -4487231.862
10 0 59468  46542.000000  0     870148.248   5707037.134  -3767529.887
10 0 59468  46662.000000  0    1129046.999   6111237.136  -2981779.076
10 0 59468  46782.000000  0    1374375.425   6404529.442  -2143701.540
10 0 59468  46902.000000  0    1599851.377   6581990.009  -1267970.436
10 0 59468  47022.000000  0    1799467.526   6640830.417   -369951.249
10 0 59468  47142.000000  0    1967637.620   6580449.601    534573.282
10 0 59468  47262.000000  0    2099335.222   6402441.826   1429687.548
10 0 59468  47382.000000  0    2190222.228   6110561.177   2299630.990
10 0 59468  47502.000000  0    2236763.532   5710642.704   3129083.517
10 0 59468  47622.000000  0    2236325.303   5210483.037   3903442.793
10 0 59468  47742.000000  0    2187253.161   4619682.165   4609087.775
10 0 59468  47862.000000  0    2088928.889   3949448.974   5233622.543
10 0 59468  47982.000000  0    1941803.963   3212377.402   5766091.007
10 0 59468  48102.000000  0    1747411.547   2422203.551   6197164.600
10 0 59468  48222.000000  0    1508355.258   1593543.894   6519301.624
10 0 59468  48342.000000  0    1228274.927    741619.769   6726873.068
10 0 59468  48462.000000  0     911790.702   -118023.723   6816253.789
10 0 59468  48582.000000  0     564426.722   -969799.825   6785882.736
10 0 59468  48702.000000  0     192514.478  -1798363.050   6636289.702
10 0 59468  48822.000000  0    -196922.750  -2588885.519   6370086.501
99
